NORAD_CAT_ID,OBJECT_NAME,OBJECT_TYPE,EPOCH,MEAN_MOTION,ECCENTRICITY,INCLINATION,RA_OF_ASC_NODE,ARG_OF_PERICENTER,MEAN_ANOMALY,BSTAR,MEAN_MOTION_DOT,MEAN_MOTION_DDOT,TLE_LINE0,TLE_LINE1,TLE_LINE2,SEMIMAJOR_AXIS,PERIOD,APOGEE,PERIGEE,DECAYED
52366.0,STARLINK-3808,PAYLOAD,2023-06-11 19:51:07,15.08838957,0.0001092,53.2173,6.6587,81.7882,278.3234,9.1733e-05,1.172e-05,0.0,0 STARLINK-3808,1 52366U 22045AM  23162.82716542  .00001172  00000-0  91733-4 0  9992,2 52366  53.2173   6.6587 0001092  81.7882 278.3234 15.08838957 64679,6917.884,95.438,540.504,538.993,0.0
52366.0,STARLINK-3808,PAYLOAD,2023-06-12 06:58:48,15.0884285,9.22e-05,53.2177,4.5759,87.1822,272.9276,5.688e-05,6.18e-06,0.0,0 STARLINK-3808,1 52366U 22045AM  23163.29084273  .00000618  00000-0  56880-4 0  9991,2 52366  53.2177   4.5759 0000922  87.1822 272.9276 15.08842850 64747,6917.872,95.437,540.375,539.099,0.0
52366.0,STARLINK-3808,PAYLOAD,2023-06-12 19:41:53,15.08843205,9.52e-05,53.2179,2.197,86.3457,273.7644,5.174e-05,5.36e-06,0.0,0 STARLINK-3808,1 52366U 22045AM  23163.82076270  .00000536  00000-0  51740-4 0  9997,2 52366  53.2179   2.1970 0000952  86.3457 273.7644 15.08843205 64828,6917.871,95.437,540.394,539.077,0.0
52366.0,STARLINK-3808,PAYLOAD,2023-06-13 13:11:08,15.08833939,8.35e-05,53.2181,358.9234,97.2566,262.8521,0.00010864,1.441e-05,0.0,0 STARLINK-3808,1 52366U 22045AM  23164.54940519  .00001441  00000-0  10864-3 0  9990,2 52366  53.2181 358.9234 0000835  97.2566 262.8521 15.08833939 64936,6917.899,95.438,540.342,539.186,0.0
52366.0,STARLINK-3808,PAYLOAD,2023-06-13 19:32:40,15.08840059,8.22e-05,53.2178,357.7343,94.4856,265.623,0.00013934,1.931e-05,0.0,0 STARLINK-3808,1 52366U 22045AM  23164.81436087  .00001931  00000-0  13934-3 0  9995,2 52366  53.2178 357.7343 0000822  94.4856 265.6230 15.08840059 64970,6917.88,95.438,540.314,539.177,0.0
52366.0,STARLINK-3808,PAYLOAD,2023-06-14 08:15:46,15.08837858,8.23e-05,53.2182,355.3572,93.9973,266.1113,4.4761e-05,4.25e-06,0.0,0 STARLINK-3808,1 52366U 22045AM  23165.34428476  .00000425  00000-0  44761-4 0  9997,2 52366  53.2182 355.3572 0000823  93.9973 266.1113 15.08837858 65057,6917.887,95.438,540.321,539.183,0.0
52366.0,STARLINK-3808,PAYLOAD,2023-06-14 14:37:19,15.08833887,0.0001234,53.217,354.1655,97.6202,262.4931,-2.5508e-05,-6.94e-06,0.0,0 STARLINK-3808,1 52366U 22045AM  23165.60925068 -.00000694  00000-0 -25508-4 0  9993,2 52366  53.2170 354.1655 0001234  97.6202 262.4931 15.08833887 65095,6917.899,95.438,540.618,538.91,0.0
52366.0,STARLINK-3808,PAYLOAD,2023-06-14 19:23:28,15.08834522,6.84e-05,53.2186,353.278,71.554,288.5527,2.2632e-05,7.3e-07,0.0,0 STARLINK-3808,1 52366U 22045AM  23165.80796896  .00000073  00000-0  22632-4 0  9994,2 52366  53.2186 353.2780 0000684  71.5540 288.5527 15.08834522 65126,6917.897,95.438,540.235,539.289,0.0
52366.0,STARLINK-3808,PAYLOAD,2023-06-14 22:34:14,15.08840571,9.09e-05,53.2179,352.6806,86.2687,273.8409,-7.2279e-06,-4.03e-06,0.0,0 STARLINK-3808,1 52366U 22045AM  23165.94044566 -.00000403  00000-0 -72279-5 0  9991,2 52366  53.2179 352.6806 0000909  86.2687 273.8409 15.08840571 65144,6917.879,95.438,540.372,539.115,0.0
52366.0,STARLINK-3808,PAYLOAD,2023-06-15 08:06:33,15.08832103,9.42e-05,53.2171,350.8965,80.7139,279.3959,1.5584e-05,-4e-07,0.0,0 STARLINK-3808,1 52366U 22045AM  23166.33789157 -.00000040  00000-0  15584-4 0  9998,2 52366  53.2171 350.8965 0000942  80.7139 279.3959 15.08832103 65200,6917.905,95.438,540.421,539.118,0.0
52366.0,STARLINK-3808,PAYLOAD,2023-06-15 12:52:43,15.08836939,9.37e-05,53.2174,350.0047,81.8181,278.2918,1.6592e-05,-2.4e-07,0.0,0 STARLINK-3808,1 52366U 22045AM  23166.53660937 -.00000024  00000-0  16592-4 0  9996,2 52366  53.2174 350.0047 0000937  81.8181 278.2918 15.08836939 65236,6917.89,95.438,540.403,539.107,0.0
52366.0,STARLINK-3808,PAYLOAD,2023-06-15 19:14:15,15.08842005,8.76e-05,53.2181,348.8166,80.9965,279.1126,6.3923e-05,7.3e-06,0.0,0 STARLINK-3808,1 52366U 22045AM  23166.80156517  .00000730  00000-0  63923-4 0  9993,2 52366  53.2181 348.8166 0000876  80.9965 279.1126 15.08842005 65279,6917.874,95.437,540.345,539.133,0.0
52366.0,STARLINK-3808,PAYLOAD,2023-06-16 07:57:20,15.08830487,9.81e-05,53.2178,346.4372,71.5877,288.5221,0.00019047,2.744e-05,0.0,0 STARLINK-3808,1 52366U 22045AM  23167.33148836  .00002744  00000-0  19047-3 0  9991,2 52366  53.2178 346.4372 0000981  71.5877 288.5221 15.08830487 65353,6917.909,95.438,540.453,539.096,0.0
52366.0,STARLINK-3808,PAYLOAD,2023-06-16 14:18:52,15.08842189,8.96e-05,53.218,345.248,79.4532,280.6561,0.00014901,2.085e-05,0.0,0 STARLINK-3808,1 52366U 22045AM  23167.59644309  .00002085  00000-0  14901-3 0  9997,2 52366  53.2180 345.2480 0000896  79.4532 280.6561 15.08842189 65399,6917.874,95.437,540.359,539.119,0.0
52366.0,STARLINK-3808,PAYLOAD,2023-06-16 19:05:01,15.08850608,8.29e-05,53.2181,344.3561,80.7331,279.3755,0.00020832,3.03e-05,0.0,0 STARLINK-3808,1 52366U 22045AM  23167.79515567  .00003030  00000-0  20832-3 0  9993,2 52366  53.2181 344.3561 0000829  80.7331 279.3755 15.08850608 65427,6917.848,95.437,540.286,539.139,0.0
52366.0,STARLINK-3808,PAYLOAD,2023-06-17 04:37:21,15.08838181,7.2e-05,53.2177,342.5716,86.7729,273.3345,6.7731e-05,7.9e-06,0.0,0 STARLINK-3808,1 52366U 22045AM  23168.19260703  .00000790  00000-0  67731-4 0  9997,2 52366  53.2177 342.5716 0000720  86.7729 273.3345 15.08838181 65488,6917.886,95.438,540.249,539.253,0.0
52366.0,STARLINK-3808,PAYLOAD,2023-06-17 20:31:14,15.08822588,0.0001244,53.218,339.5984,89.4473,270.6662,-0.00011302,-2.085e-05,0.0,0 STARLINK-3808,1 52366U 22045AM  23168.85502849 -.00002085  00000-0 -11302-3 0  9993,2 52366  53.2180 339.5984 0001244  89.4473 270.6662 15.08822588 65580,6917.934,95.439,540.659,538.938,0.0
52366.0,STARLINK-3808,PAYLOAD,2023-06-18 04:28:09,15.08834782,0.0001162,53.2183,338.1119,91.5154,268.5971,8.7791e-06,-1.48e-06,0.0,0 STARLINK-3808,1 52366U 22045AM  23169.18621933 -.00000148  00000-0  87791-5 0  9990,2 52366  53.2183 338.1119 0001162  91.5154 268.5971 15.08834782 65631,6917.896,95.438,540.565,538.957,0.0
52366.0,STARLINK-3808,PAYLOAD,2023-06-18 10:49:41,15.08840368,8.11e-05,53.2181,336.9223,101.4868,258.6216,6.2617e-05,7.09e-06,0.0,0 STARLINK-3808,1 52366U 22045AM  23169.45117368  .00000709  00000-0  62617-4 0  9993,2 52366  53.2181 336.9223 0000811 101.4868 258.6216 15.08840368 65677,6917.879,95.438,540.305,539.183,0.0
52366.0,STARLINK-3808,PAYLOAD,2023-06-18 17:11:13,15.08850037,0.0001052,53.2184,335.7329,93.6151,266.4961,0.00014105,1.958e-05,0.0,0 STARLINK-3808,1 52366U 22045AM  23169.71612633  .00001958  00000-0  14105-3 0  9992,2 52366  53.2184 335.7329 0001052  93.6151 266.4961 15.08850037 65712,6917.85,95.437,540.442,538.987,0.0
52366.0,STARLINK-3808,PAYLOAD,2023-06-19 10:40:28,15.08836827,7.21e-05,53.2169,332.4619,106.8715,253.2356,0.00032401,4.872e-05,0.0,0 STARLINK-3808,1 52366U 22045AM  23170.44477676  .00004872  00000-0  32401-3 0  9997,2 52366  53.2169 332.4619 0000721 106.8715 253.2356 15.08836827 65821,6917.89,95.438,540.254,539.256,0.0
52366.0,STARLINK-3808,PAYLOAD,2023-06-19 18:37:24,15.08845596,5.37e-05,53.2174,330.9758,86.734,273.3714,0.0002645,3.925e-05,0.0,0 STARLINK-3808,1 52366U 22045AM  23170.77597377  .00003925  00000-0  26450-3 0  9999,2 52366  53.2174 330.9758 0000537  86.7340 273.3714 15.08845596 65878,6917.863,95.437,540.1,539.357,0.0
52366.0,STARLINK-3808,PAYLOAD,2023-06-20 04:09:43,15.08843154,6.07e-05,53.2176,329.1898,102.1994,257.9066,0.00017531,2.504e-05,0.0,0 STARLINK-3808,1 52366U 22045AM  23171.17341475  .00002504  00000-0  17531-3 0  9992,2 52366  53.2176 329.1898 0000607 102.1994 257.9066 15.08843154 65934,6917.871,95.437,540.156,539.316,0.0
52366.0,STARLINK-3808,PAYLOAD,2023-06-20 16:52:47,15.08845787,7.08e-05,53.218,326.8113,92.9054,267.2019,6.3005e-05,7.15e-06,0.0,0 STARLINK-3808,1 52366U 22045AM  23171.70333304  .00000715  00000-0  63005-4 0  9993,2 52366  53.2180 326.8113 0000708  92.9054 267.2019 15.08845787 66014,6917.863,95.437,540.217,539.238,0.0
52366.0,STARLINK-3808,PAYLOAD,2023-06-20 18:28:11,15.08847286,7.36e-05,53.2183,326.5135,97.3868,262.7207,7.7656e-05,9.49e-06,0.0,0 STARLINK-3808,1 52366U 22045AM  23171.76957205  .00000949  00000-0  77656-4 0  9997,2 52366  53.2183 326.5135 0000736  97.3868 262.7207 15.08847286 66027,6917.858,95.437,540.232,539.214,0.0
52366.0,STARLINK-3808,PAYLOAD,2023-06-21 13:32:48,15.08843779,6.85e-05,53.2187,322.9455,92.2035,267.9036,6.9119e-05,8.13e-06,0.0,0 STARLINK-3808,1 52366U 22045AM  23172.56445285  .00000813  00000-0  69119-4 0  9991,2 52366  53.2187 322.9455 0000685  92.2035 267.9036 15.08843779 66142,6917.869,95.437,540.208,539.26,0.0
52366.0,STARLINK-3808,PAYLOAD,2023-06-21 16:43:34,15.08844444,6.73e-05,53.2176,322.3509,84.0027,276.1042,7.7014e-05,9.38e-06,0.0,0 STARLINK-3808,1 52366U 22045AM  23172.69693216  .00000938  00000-0  77014-4 0  9995,2 52366  53.2176 322.3509 0000673  84.0027 276.1042 15.08844444 66162,6917.867,95.437,540.197,539.266,0.0
52366.0,STARLINK-3808,PAYLOAD,2023-06-22 10:12:49,15.08837302,6.81e-05,53.2176,319.0797,97.8455,262.2614,3.3694e-05,2.49e-06,0.0,0 STARLINK-3808,1 52366U 22045AM  23173.42557687  .00000249  00000-0  33694-4 0  9999,2 52366  53.2176 319.0797 0000681  97.8455 262.2614 15.08837302 66278,6917.889,95.438,540.225,539.283,0.0
52366.0,STARLINK-3808,PAYLOAD,2023-06-22 18:09:44,15.08844066,6.21e-05,53.2178,317.5934,108.1341,251.9719,0.00012538,1.709e-05,0.0,0 STARLINK-3808,1 52366U 22045AM  23173.75677060  .00001709  00000-0  12538-3 0  9998,2 52366  53.2178 317.5934 0000621 108.1341 251.9719 15.08844066 66322,6917.868,95.437,540.163,539.303,0.0
52366.0,STARLINK-3808,PAYLOAD,2023-06-23 21:11:17,15.08854922,7.46e-05,53.2177,312.5382,97.909,262.1987,0.00018897,2.722e-05,0.0,0 STARLINK-3808,1 52366U 22045AM  23174.88284240  .00002722  00000-0  18897-3 0  9997,2 52366  53.2177 312.5382 0000746  97.9090 262.1987 15.08854922 66498,6917.835,95.437,540.216,539.184,0.0
